[{"OBJECT_NAME":"STARLINK-35706","OBJECT_ID":"2025-294X","EPOCH":"2026-03-09T18:49:29.277696","MEAN_MOTION":15.27570629,"ECCENTRICITY":9.413e-5,"INCLINATION":43.0009,"RA_OF_ASC_NODE":37.5365,"ARG_OF_PERICENTER":279.7056,"MEAN_ANOMALY":80.369,"EPHEMERIS_TYPE":0,"CLASSIFICATION_TYPE":"U","NORAD_CAT_ID":67051,"ELEMENT_SET_NO":999,"REV_AT_EPOCH":1481,"BSTAR":0.00083859293,"MEAN_MOTION_DOT":0.00022879,"MEAN_MOTION_DDOT":0},{"OBJECT_NAME":"COSMOS 1975","OBJECT_ID":"1988-093A","EPOCH":"2026-03-09T14:15:08.474112","MEAN_MOTION":15.28069249,"ECCENTRICITY":0.0012117,"INCLINATION":82.5181,"RA_OF_ASC_NODE":117.7814,"ARG_OF_PERICENTER":163.8427,"MEAN_ANOMALY":196.3201,"EPHEMERIS_TYPE":0,"CLASSIFICATION_TYPE":"U","NORAD_CAT_ID":19573,"ELEMENT_SET_NO":999,"REV_AT_EPOCH":1939,"BSTAR":0.0002787,"MEAN_MOTION_DOT":7.676e-5,"MEAN_MOTION_DDOT":0}]
